[{"OBJECT_NAME":"STARLINK-30818","OBJECT_ID":"2023-170M","EPOCH":"2026-03-09T22:00:01.999584","MEAN_MOTION":15.26728011,"ECCENTRICITY":0.00017343,"INCLINATION":43.0009,"RA_OF_ASC_NODE":192.5311,"ARG_OF_PERICENTER":269.5729,"MEAN_ANOMALY":283.793,"EPHEMERIS_TYPE":0,"CLASSIFICATION_TYPE":"U","NORAD_CAT_ID":58217,"ELEMENT_SET_NO":999,"REV_AT_EPOCH":578,"BSTAR":0.00072234449,"MEAN_MOTION_DOT":0.00019159,"MEAN_MOTION_DDOT":0},{"OBJECT_NAME":"TIANMU-1 13","OBJECT_ID":"2023-205C","EPOCH":"2026-03-10T00:00:50.036832","MEAN_MOTION":15.25862583,"ECCENTRICITY":0.00064025,"INCLINATION":97.3565,"RA_OF_ASC_NODE":92.1641,"ARG_OF_PERICENTER":331.9635,"MEAN_ANOMALY":28.1258,"EPHEMERIS_TYPE":0,"CLASSIFICATION_TYPE":"U","NORAD_CAT_ID":58647,"ELEMENT_SET_NO":999,"REV_AT_EPOCH":12237,"BSTAR":0.00032666188,"MEAN_MOTION_DOT":8.299e-5,"MEAN_MOTION_DDOT":0}]
